
    {
      "objectName": "ONEWEB-0661",
      "objectId": "2023-029AB",
      "noradId": 55821,
      "epochUtc": "2026-03-16T03:29:40.155360Z",
      "meanMotionRevPerDay": 13.14504112,
      "eccentricity": 0.00015321,
      "inclinationDeg": 87.8964,
      "raanDeg": 308.3189,
      "argPerigeeDeg": 93.9776,
      "meanAnomalyDeg": 266.1529,
      "bstar": -0.00012053091,
      "meanMotionDot": -3.2e-7,
      "meanMotionDdot": 0,
      "elementSetNo": 999,
      "revAtEpoch": 14716
    },
    {
      "objectName": "ONEWEB-0666",
      "objectId": "2023-029AG",
      "noradId": 55826,
      "epochUtc": "2026-03-16T03:44:22.096320Z",
      "meanMotionRevPerDay": 13.2077096,
      "eccentricity": 0.00018439,
      "inclinationDeg": 87.915,
      "raanDeg": 293.0586,
      "argPerigeeDeg": 64.3199,
      "meanAnomalyDeg": 295.8125,
      "bstar": 0.00020558723,
      "meanMotionDot": 9.7e-7,
      "meanMotionDdot": 0,
      "elementSetNo": 999,
      "revAtEpoch": 14887
    },
    {
      "objectName": "ONEWEB-0673",
      "objectId": "2023-029AN",
      "noradId": 55832,
      "epochUtc": "2026-03-16T03:57:37.796256Z",
      "meanMotionRevPerDay": 13.19724749,
      "eccentricity": 0.00016445,
      "inclinationDeg": 87.9222,
      "raanDeg": 323.5011,
      "argPerigeeDeg": 84.7545,
      "meanAnomalyDeg": 275.3776,
      "bstar": 0.00023408869,
      "meanMotionDot": 0.00000107,
      "meanMotionDdot": 0,
      "elementSetNo": 999,
      "revAtEpoch": 14663
    },
    {
      "objectName": "ONEWEB-0538",
      "objectId": "2023-043B",
      "noradId": 56047,
      "epochUtc": "2026-03-16T04:01:53.980896Z",
      "meanMotionRevPerDay": 13.16595016,
      "eccentricity": 0.00018986,
      "inclinationDeg": 87.901,
      "raanDeg": 247.2712,
      "argPerigeeDeg": 93.4994,
      "meanAnomalyDeg": 266.6355,
      "bstar": 0.00044242189,
      "meanMotionDot": 0.00000182,
      "meanMotionDdot": 0,
      "elementSetNo": 999,
      "revAtEpoch": 14673
    },
    {
      "objectName": "ONEWEB-0550",
      "objectId": "2023-043G",
      "noradId": 56052,
      "epochUtc": "2026-03-16T01:06:19.291968Z",
      "meanMotionRevPerDay": 13.21825266,
      "eccentricity": 0.00015796,
      "inclinationDeg": 87.9163,
      "raanDeg": 262.5481,
      "argPerigeeDeg": 93.9028,
      "meanAnomalyDeg": 266.2287,
      "bstar": -0.00021020968,
      "meanMotionDot": -7.4e-7,
      "meanMotionDdot": 0,
      "elementSetNo": 999,
      "revAtEpoch": 14592
    },
    {
      "objectName": "ONEWEB-0557",
      "objectId": "2023-043N",
      "noradId": 56058,
      "epochUtc": "2026-03-16T04:49:46.519104Z",
      "meanMotionRevPerDay": 13.16593966,
      "eccentricity": 0.00004119,
      "inclinationDeg": 87.9013,
      "raanDeg": 247.2717,
      "argPerigeeDeg": 92.6192,
      "meanAnomalyDeg": 267.4986,
      "bstar": -0.00025213424,
      "meanMotionDot": -8.4e-7,
      "meanMotionDdot": 0,
      "elementSetNo": 999,
      "revAtEpoch": 14672
    },
    {
      "objectName": "ONEWEB-0574",
      "objectId": "2023-043T",
      "noradId": 56063,
      "epochUtc": "2026-03-16T00:14:11.997312Z",
      "meanMotionRevPerDay": 13.21826458,
      "eccentricity": 0.00015022,
      "inclinationDeg": 87.9176,
      "raanDeg": 262.5425,
      "argPerigeeDeg": 95.4783,
      "meanAnomalyDeg": 264.6522,
      "bstar": 0.000034351879,
      "meanMotionDot": 2.7e-7,
      "meanMotionDdot": 0,
      "elementSetNo": 999,
      "revAtEpoch": 14596
    },
    {
      "objectName": "ONEWEB-0581",
      "objectId": "2023-043Z",
      "noradId": 56069,
      "epochUtc": "2026-03-16T04:56:37.032288Z",
      "meanMotionRevPerDay": 13.16594906,
      "eccentricity": 0.00011662,
      "inclinationDeg": 87.9009,
      "raanDeg": 247.2727,
      "argPerigeeDeg": 109.5849,
      "meanAnomalyDeg": 250.5408,
      "bstar": -0.00022695706,
      "meanMotionDot": -7.4e-7,
      "meanMotionDdot": 0,
      "elementSetNo": 999,
      "revAtEpoch": 14672
    },
    {
      "objectName": "ONEWEB-0633",
      "objectId": "2023-043AE",
      "noradId": 56074,
      "epochUtc": "2026-03-16T01:39:20.975328Z",
      "meanMotionRevPerDay": 13.15548549,
      "eccentricity": 0.0002086,
      "inclinationDeg": 87.8939,
      "raanDeg": 277.7743,
      "argPerigeeDeg": 94.7794,
      "meanAnomalyDeg": 265.3575,
      "bstar": 0.00015590049,
      "meanMotionDot": 7.2e-7,
      "meanMotionDdot": 0,
      "elementSetNo": 999,
      "revAtEpoch": 14416
    },
    {
      "objectName": "ONEWEB-0651",
      "objectId": "2023-043AL",
      "noradId": 56080,
      "epochUtc": "2026-03-16T02:27:15.931872Z",
      "meanMotionRevPerDay": 13.15548369,
      "eccentricity": 0.00013781,
      "inclinationDeg": 87.8933,
      "raanDeg": 277.8088,
      "argPerigeeDeg": 88.8141,
      "meanAnomalyDeg": 271.3147,
      "bstar": 0.00024134952,
      "meanMotionDot": 0.00000104,
      "meanMotionDdot": 0,
      "elementSetNo": 999,
      "revAtEpoch": 14538
    },
    {
      "objectName": "ONEWEB-0677",
      "objectId": "2023-068D",
      "noradId": 56713,
      "epochUtc": "2026-03-16T03:46:38.698176Z",
      "meanMotionRevPerDay": 13.2077413,
      "eccentricity": 0.0001461,
      "inclinationDeg": 87.9159,
      "raanDeg": 293.0117,
      "argPerigeeDeg": 82.0739,
      "meanAnomalyDeg": 278.0561,
      "bstar": 0.00027247406,
      "meanMotionDot": 0.00000124,
      "meanMotionDdot": 0,
      "elementSetNo": 999,
      "revAtEpoch": 13752
    },
    {
      "objectName": "ONEWEB-0682",
      "objectId": "2023-068J",
      "noradId": 56718,
      "epochUtc": "2026-03-16T00:21:56.914848Z",
      "meanMotionRevPerDay": 13.15936114,
      "eccentricity": 0.0001561,
      "inclinationDeg": 87.8945,
      "raanDeg": 277.7966,
      "argPerigeeDeg": 74.8089,
      "meanAnomalyDeg": 285.3214,
      "bstar": 0.07284999,
      "meanMotionDot": 0.00027678,
      "meanMotionDdot": 0,
      "elementSetNo": 999,
      "revAtEpoch": 13720
    },
    {
      "objectName": "ONEWEB-0703",
      "objectId": "2023-068Q",
      "noradId": 56724,
      "epochUtc": "2026-03-16T02:06:43.628544Z",
      "meanMotionRevPerDay": 13.15548396,
      "eccentricity": 0.00019091,
      "inclinationDeg": 87.8931,
      "raanDeg": 277.793,
      "argPerigeeDeg": 122.6435,
      "meanAnomalyDeg": 237.488,
      "bstar": 0.00048352388,
      "meanMotionDot": 0.00000195,
      "meanMotionDdot": 0,
      "elementSetNo": 999,
      "revAtEpoch": 13701
    }