ONEWEB-0661             
1 55821U 23029AB  26075.14560365 -.00000032  00000+0 -12053-3 0  9997
2 55821  87.8964 308.3189 0001532  93.9776 266.1529 13.14504112147161
ONEWEB-0666             
1 55826U 23029AG  26075.15581130  .00000097  00000+0  20559-3 0  9995
2 55826  87.9150 293.0586 0001843  64.3199 295.8125 13.20770960148874
ONEWEB-0673             
1 55832U 23029AN  26075.16502079  .00000107  00000+0  23409-3 0  9997
2 55832  87.9222 323.5011 0001644  84.7545 275.3776 13.19724749146632
ONEWEB-0538             
1 56047U 23043B   26075.16798589  .00000182  00000+0  44242-3 0  9996
2 56047  87.9010 247.2712 0001898  93.4994 266.6355 13.16595016146739
ONEWEB-0550             
1 56052U 23043G   26075.04605662 -.00000074  00000+0 -21021-3 0  9990
2 56052  87.9163 262.5481 0001579  93.9028 266.2287 13.21825266145925
ONEWEB-0557             
1 56058U 23043N   26075.20123286 -.00000084  00000+0 -25213-3 0  9999
2 56058  87.9013 247.2717 0000411  92.6192 267.4986 13.16593966146720
ONEWEB-0574             
1 56063U 23043T   26075.00986108  .00000027  00000+0  34352-4 0  9993
2 56063  87.9176 262.5425 0001502  95.4783 264.6522 13.21826458145962
ONEWEB-0581             
1 56069U 23043Z   26075.20598417 -.00000074  00000+0 -22696-3 0  9994
2 56069  87.9009 247.2727 0001166 109.5849 250.5408 13.16594906146720
ONEWEB-0633             
1 56074U 23043AE  26075.06899277  .00000072  00000+0  15590-3 0  9993
2 56074  87.8939 277.7743 0002086  94.7794 265.3575 13.15548549144165
ONEWEB-0651             
1 56080U 23043AL  26075.10226773  .00000104  00000+0  24135-3 0  9991
2 56080  87.8933 277.8088 0001378  88.8141 271.3147 13.15548369145389
ONEWEB-0677             
1 56713U 23068D   26075.15739234  .00000124  00000+0  27247-3 0  9996
2 56713  87.9159 293.0117 0001461  82.0739 278.0561 13.20774130137522
ONEWEB-0682             
1 56718U 23068J   26075.01524207  .00027678  00000+0  72850-1 0  9999
2 56718  87.8945 277.7966 0001561  74.8089 285.3214 13.15936114137205
ONEWEB-0703             
1 56724U 23068Q   26075.08800496  .00000195  00000+0  48352-3 0  9997
2 56724  87.8931 277.7930 0001909 122.6435 237.4880 13.15548396137018
